STARLINK-35841          
1 67086U 25298M   26019.75189303  .00057058  00000+0  12958-2 0  9998
2 67086  70.0007 144.3901 0003297 270.7619  89.3185 15.42732423  5729
STARLINK-35842          
1 67087U 25298N   26019.78503601  .00064297  00000+0  14581-2 0  9990
2 67087  69.9999 144.9223 0003631 281.0773  79.0001 15.42737442  5716
STARLINK-35882          
1 67088U 25298P   26019.75999761  .00055433  00000+0  12589-2 0  9992
2 67088  70.0033 144.4197 0003861 274.2975  85.7765 15.42739481  5724
STARLINK-35763          
1 67089U 25298Q   26019.92173822  .00032422  00000+0  73984-3 0  9994
2 67089  70.0000 144.1851 0003261 270.4466  89.6343 15.42744179  5747
STARLINK-36060          
1 67090U 25298R   26019.77585063  .00067965  00000+0  15400-2 0  9991
2 67090  70.0009 144.4754 0003270 275.5568  84.5241 15.42745259  5721
STARLINK-36097          
1 67091U 25298S   26019.91668981  .00021801  00000+0  50044-3 0  9992
2 67091  69.9998 144.1199 0003103 270.7748 129.2885 15.42674436  6043
STARLINK-35792          
1 67092U 25298T   26019.78377023  .00020518  00000+0  47023-3 0  9999
2 67092  70.0014 144.5053 0003581 261.1978  98.8799 15.42738553  5728
STARLINK-35784          
1 67093U 25298U   26019.73532484  .00062975  00000+0  14280-2 0  9990
2 67093  70.0004 144.7388 0002863 275.3203  84.7652 15.42748403  5717
STARLINK-36202          
1 67094U 25298V   26019.73118383  .00050484  00000+0  11483-2 0  9993
2 67094  70.0006 144.7243 0003284 271.2571  88.8234 15.42720763  5711
STARLINK-36227          
1 67095U 25298W   26019.77188717  .00056852  00000+0  12913-2 0  9990
2 67095  70.0001 144.4606 0003748 289.9322  70.1456 15.42728356  5729
STARLINK-36228          
1 67096U 25298X   26019.74775422  .00047521  00000+0  10805-2 0  9994
2 67096  70.0009 144.3741 0003290 270.0639  90.0165 15.42750425  5721
STARLINK-36222          
1 67097U 25298Y   26019.75585651  .00031417  00000+0  71764-3 0  9998
2 67097  70.0015 144.4029 0003351 270.1975  89.8823 15.42721854  5722
STARLINK-36205          
1 67098U 25298Z   26019.73928583  .00043522  00000+0  99137-3 0  9996
2 67098  70.0005 144.7544 0003305 269.6134  90.4669 15.42719548  5718
STARLINK-36193          
1 67099U 25298AA  26019.77963317  .00034964  00000+0  79802-3 0  9992
2 67099  70.0012 144.9012 0002866 262.0186  98.0671 15.42718783  5711
STARLINK-36215          
1 67100U 25298AB  26019.67876899  .00047879  00000+0  10893-2 0  9995
2 67100  70.0003 144.5332 0003415 272.9970  87.0821 15.42728704  5716
STARLINK-36200          
1 67101U 25298AC  26019.72307751  .00049178  00000+0  11189-2 0  9991
2 67101  70.0005 144.6948 0003359 271.4657  88.6140 15.42720644  5712
