[{"OBJECT_NAME":"STARLINK-35841","OBJECT_ID":"2025-298M","EPOCH":"2026-01-19T18:02:43.557792","MEAN_MOTION":15.42732423,"ECCENTRICITY":0.00032975,"INCLINATION":70.0007,"RA_OF_ASC_NODE":144.3901,"ARG_OF_PERICENTER":270.7619,"MEAN_ANOMALY":89.3185,"EPHEMERIS_TYPE":0,"CLASSIFICATION_TYPE":"U","NORAD_CAT_ID":67086,"ELEMENT_SET_NO":999,"REV_AT_EPOCH":572,"BSTAR":0.0012958211,"MEAN_MOTION_DOT":0.00057058,"MEAN_MOTION_DDOT":0},{"OBJECT_NAME":"STARLINK-35842","OBJECT_ID":"2025-298N","EPOCH":"2026-01-19T18:50:27.111264","MEAN_MOTION":15.42737442,"ECCENTRICITY":0.00036315,"INCLINATION":69.9999,"RA_OF_ASC_NODE":144.9223,"ARG_OF_PERICENTER":281.0773,"MEAN_ANOMALY":79.0001,"EPHEMERIS_TYPE":0,"CLASSIFICATION_TYPE":"U","NORAD_CAT_ID":67087,"ELEMENT_SET_NO":999,"REV_AT_EPOCH":571,"BSTAR":0.0014581358,"MEAN_MOTION_DOT":0.00064297,"MEAN_MOTION_DDOT":0},{"OBJECT_NAME":"STARLINK-35882","OBJECT_ID":"2025-298P","EPOCH":"2026-01-19T18:14:23.793504","MEAN_MOTION":15.42739481,"ECCENTRICITY":0.00038619,"INCLINATION":70.0033,"RA_OF_ASC_NODE":144.4197,"ARG_OF_PERICENTER":274.2975,"MEAN_ANOMALY":85.7765,"EPHEMERIS_TYPE":0,"CLASSIFICATION_TYPE":"U","NORAD_CAT_ID":67088,"ELEMENT_SET_NO":999,"REV_AT_EPOCH":572,"BSTAR":0.0012588949,"MEAN_MOTION_DOT":0.00055433,"MEAN_MOTION_DDOT":0},{"OBJECT_NAME":"STARLINK-35763","OBJECT_ID":"2025-298Q","EPOCH":"2026-01-19T22:07:18.182208","MEAN_MOTION":15.42744179,"ECCENTRICITY":0.00032614,"INCLINATION":70,"RA_OF_ASC_NODE":144.1851,"ARG_OF_PERICENTER":270.4466,"MEAN_ANOMALY":89.6343,"EPHEMERIS_TYPE":0,"CLASSIFICATION_TYPE":"U","NORAD_CAT_ID":67089,"ELEMENT_SET_NO":999,"REV_AT_EPOCH":574,"BSTAR":0.00073984253,"MEAN_MOTION_DOT":0.00032422,"MEAN_MOTION_DDOT":0},{"OBJECT_NAME":"STARLINK-36060","OBJECT_ID":"2025-298R","EPOCH":"2026-01-19T18:37:13.494432","MEAN_MOTION":15.42745259,"ECCENTRICITY":0.00032707,"INCLINATION":70.0009,"RA_OF_ASC_NODE":144.4754,"ARG_OF_PERICENTER":275.5568,"MEAN_ANOMALY":84.5241,"EPHEMERIS_TYPE":0,"CLASSIFICATION_TYPE":"U","NORAD_CAT_ID":67090,"ELEMENT_SET_NO":999,"REV_AT_EPOCH":572,"BSTAR":0.001540042,"MEAN_MOTION_DOT":0.00067965,"MEAN_MOTION_DDOT":0},{"OBJECT_NAME":"STARLINK-36097","OBJECT_ID":"2025-298S","EPOCH":"2026-01-19T22:00:01.999584","MEAN_MOTION":15.42674436,"ECCENTRICITY":0.00031032,"INCLINATION":69.9998,"RA_OF_ASC_NODE":144.1199,"ARG_OF_PERICENTER":270.7748,"MEAN_ANOMALY":129.2885,"EPHEMERIS_TYPE":0,"CLASSIFICATION_TYPE":"U","NORAD_CAT_ID":67091,"ELEMENT_SET_NO":999,"REV_AT_EPOCH":604,"BSTAR":0.0005004431,"MEAN_MOTION_DOT":0.00021801,"MEAN_MOTION_DDOT":0},{"OBJECT_NAME":"STARLINK-35792","OBJECT_ID":"2025-298T","EPOCH":"2026-01-19T18:48:37.747872","MEAN_MOTION":15.42738553,"ECCENTRICITY":0.00035812,"INCLINATION":70.0014,"RA_OF_ASC_NODE":144.5053,"ARG_OF_PERICENTER":261.1978,"MEAN_ANOMALY":98.8799,"EPHEMERIS_TYPE":0,"CLASSIFICATION_TYPE":"U","NORAD_CAT_ID":67092,"ELEMENT_SET_NO":999,"REV_AT_EPOCH":572,"BSTAR":0.00047022805,"MEAN_MOTION_DOT":0.00020518,"MEAN_MOTION_DDOT":0},{"OBJECT_NAME":"STARLINK-35784","OBJECT_ID":"2025-298U","EPOCH":"2026-01-19T17:38:52.066176","MEAN_MOTION":15.42748403,"ECCENTRICITY":0.00028631,"INCLINATION":70.0004,"RA_OF_ASC_NODE":144.7388,"ARG_OF_PERICENTER":275.3203,"MEAN_ANOMALY":84.7652,"EPHEMERIS_TYPE":0,"CLASSIFICATION_TYPE":"U","NORAD_CAT_ID":67093,"ELEMENT_SET_NO":999,"REV_AT_EPOCH":571,"BSTAR":0.0014280411,"MEAN_MOTION_DOT":0.00062975,"MEAN_MOTION_DDOT":0},{"OBJECT_NAME":"STARLINK-36202","OBJECT_ID":"2025-298V","EPOCH":"2026-01-19T17:32:54.282912","MEAN_MOTION":15.42720763,"ECCENTRICITY":0.00032841,"INCLINATION":70.0006,"RA_OF_ASC_NODE":144.7243,"ARG_OF_PERICENTER":271.2571,"MEAN_ANOMALY":88.8234,"EPHEMERIS_TYPE":0,"CLASSIFICATION_TYPE":"U","NORAD_CAT_ID":67094,"ELEMENT_SET_NO":999,"REV_AT_EPOCH":571,"BSTAR":0.0011483302,"MEAN_MOTION_DOT":0.00050484,"MEAN_MOTION_DDOT":0},{"OBJECT_NAME":"STARLINK-36227","OBJECT_ID":"2025-298W","EPOCH":"2026-01-19T18:31:31.051488","MEAN_MOTION":15.42728356,"ECCENTRICITY":0.00037482,"INCLINATION":70.0001,"RA_OF_ASC_NODE":144.4606,"ARG_OF_PERICENTER":289.9322,"MEAN_ANOMALY":70.1456,"EPHEMERIS_TYPE":0,"CLASSIFICATION_TYPE":"U","NORAD_CAT_ID":67095,"ELEMENT_SET_NO":999,"REV_AT_EPOCH":572,"BSTAR":0.0012913047,"MEAN_MOTION_DOT":0.00056852,"MEAN_MOTION_DDOT":0},{"OBJECT_NAME":"STARLINK-36228","OBJECT_ID":"2025-298X","EPOCH":"2026-01-19T17:56:45.964608","MEAN_MOTION":15.42750425,"ECCENTRICITY":0.00032909,"INCLINATION":70.0009,"RA_OF_ASC_NODE":144.3741,"ARG_OF_PERICENTER":270.0639,"MEAN_ANOMALY":90.0165,"EPHEMERIS_TYPE":0,"CLASSIFICATION_TYPE":"U","NORAD_CAT_ID":67096,"ELEMENT_SET_NO":999,"REV_AT_EPOCH":572,"BSTAR":0.0010804777,"MEAN_MOTION_DOT":0.00047521,"MEAN_MOTION_DDOT":0},{"OBJECT_NAME":"STARLINK-36222","OBJECT_ID":"2025-298Y","EPOCH":"2026-01-19T18:08:26.002464","MEAN_MOTION":15.42721854,"ECCENTRICITY":0.00033519,"INCLINATION":70.0015,"RA_OF_ASC_NODE":144.4029,"ARG_OF_PERICENTER":270.1975,"MEAN_ANOMALY":89.8823,"EPHEMERIS_TYPE":0,"CLASSIFICATION_TYPE":"U","NORAD_CAT_ID":67097,"ELEMENT_SET_NO":999,"REV_AT_EPOCH":572,"BSTAR":0.00071763728,"MEAN_MOTION_DOT":0.00031417,"MEAN_MOTION_DDOT":0},{"OBJECT_NAME":"STARLINK-36205","OBJECT_ID":"2025-298Z","EPOCH":"2026-01-19T17:44:34.295712","MEAN_MOTION":15.42719548,"ECCENTRICITY":0.0003305,"INCLINATION":70.0005,"RA_OF_ASC_NODE":144.7544,"ARG_OF_PERICENTER":269.6134,"MEAN_ANOMALY":90.4669,"EPHEMERIS_TYPE":0,"CLASSIFICATION_TYPE":"U","NORAD_CAT_ID":67098,"ELEMENT_SET_NO":999,"REV_AT_EPOCH":571,"BSTAR":0.00099136605,"MEAN_MOTION_DOT":0.00043522,"MEAN_MOTION_DDOT":0},{"OBJECT_NAME":"STARLINK-36193","OBJECT_ID":"2025-298AA","EPOCH":"2026-01-19T18:42:40.305888","MEAN_MOTION":15.42718783,"ECCENTRICITY":0.00028667,"INCLINATION":70.0012,"RA_OF_ASC_NODE":144.9012,"ARG_OF_PERICENTER":262.0186,"MEAN_ANOMALY":98.0671,"EPHEMERIS_TYPE":0,"CLASSIFICATION_TYPE":"U","NORAD_CAT_ID":67099,"ELEMENT_SET_NO":999,"REV_AT_EPOCH":571,"BSTAR":0.00079801599,"MEAN_MOTION_DOT":0.00034964,"MEAN_MOTION_DDOT":0},{"OBJECT_NAME":"STARLINK-36215","OBJECT_ID":"2025-298AB","EPOCH":"2026-01-19T16:17:25.640736","MEAN_MOTION":15.42728704,"ECCENTRICITY":0.00034158,"INCLINATION":70.0003,"RA_OF_ASC_NODE":144.5332,"ARG_OF_PERICENTER":272.997,"MEAN_ANOMALY":87.0821,"EPHEMERIS_TYPE":0,"CLASSIFICATION_TYPE":"U","NORAD_CAT_ID":67100,"ELEMENT_SET_NO":999,"REV_AT_EPOCH":571,"BSTAR":0.0010893029,"MEAN_MOTION_DOT":0.00047879,"MEAN_MOTION_DDOT":0},{"OBJECT_NAME":"STARLINK-36200","OBJECT_ID":"2025-298AC","EPOCH":"2026-01-19T17:21:13.896864","MEAN_MOTION":15.42720644,"ECCENTRICITY":0.00033597,"INCLINATION":70.0005,"RA_OF_ASC_NODE":144.6948,"ARG_OF_PERICENTER":271.4657,"MEAN_ANOMALY":88.614,"EPHEMERIS_TYPE":0,"CLASSIFICATION_TYPE":"U","NORAD_CAT_ID":67101,"ELEMENT_SET_NO":999,"REV_AT_EPOCH":571,"BSTAR":0.0011188866,"MEAN_MOTION_DOT":0.00049178,"MEAN_MOTION_DDOT":0}]
